FENGYUN 1C DEB          
1 37055U 99025EEP 17343.03542791  .00001500  00000-0  42205-3 0  9996
2 37055  98.6286  58.3797 0104624  73.3627 287.9019 14.44217308477856
